OBJECT_NAME,OBJECT_ID,EPOCH,MEAN_MOTION,ECCENTRICITY,INCLINATION,RA_OF_ASC_NODE,ARG_OF_PERICENTER,MEAN_ANOMALY,EPHEMERIS_TYPE,CLASSIFICATION_TYPE,NORAD_CAT_ID,ELEMENT_SET_NO,REV_AT_EPOCH,BSTAR,MEAN_MOTION_DOT,MEAN_MOTION_DDOT
CHUANGXIN 1-02 (CX-1-02),2008-056B,2026-05-15T06:36:08.824896,14.30145439,.00131837,98.6161,161.8670,234.2791,125.7165,0,U,33434,999,91391,-.20848198E-4,-.98E-6,0
STARS (KUKAI),2009-002G,2026-05-15T07:16:06.288384,14.95507662,.0006964,98.1537,81.2799,282.0265,78.0174,0,U,33498,999,93356,.16223839E-3,.1734E-4,0
KKS-1 (KISEKI),2009-002H,2026-05-15T06:21:01.641312,14.83032513,.00089367,98.1195,57.1872,44.8029,315.3904,0,U,33499,999,93131,.94975961E-4,.717E-5,0
UK-DMC 2,2009-041C,2026-05-15T08:19:22.950624,14.75973854,.00016503,97.8781,271.1261,81.4593,278.6804,0,U,35683,999,90172,.10665854E-3,.684E-5,0
OCEANSAT-2,2009-051A,2026-05-15T05:52:04.705824,13.99648902,.00150418,98.2299,125.3874,334.6469,25.3958,0,U,35931,999,87472,.11052264E-3,.124E-5,0
SWISSCUBE,2009-051B,2026-05-15T04:34:35.900256,14.62413285,.00060368,98.4057,42.5027,326.5843,33.4976,0,U,35932,999,88433,.12199218E-3,.568E-5,0
BEESAT-1,2009-051C,2026-05-15T04:23:38.278752,14.61662637,.00048812,98.3986,42.1991,345.2860,14.8198,0,U,35933,999,88436,.10507522E-3,.474E-5,0
ITUPSAT1,2009-051E,2026-05-15T06:46:19.108704,14.60387457,.00072876,98.4071,41.5264,351.7541,8.3537,0,U,35935,999,88393,.10142039E-3,.442E-5,0
DMSP 5D-3 F18 (USA 210),2009-057A,2026-05-15T06:11:26.172384,14.14877335,.00108964,98.9027,116.1021,351.1412,8.9567,0,U,35951,999,85493,.12937177E-3,.205E-5,0
PROBA-2,2009-059B,2026-05-15T02:10:19.839360,14.54847598,.00138335,98.2449,318.9030,28.2746,331.9199,0,U,36037,999,87671,.34904987E-4,.105E-5,0
YAOGAN-7,2009-069A,2026-05-15T06:05:52.331424,14.77974490,.00253998,98.0112,21.3184,142.8060,217.4916,0,U,36110,999,88476,.42553424E-4,.255E-5,0
XIWANG-1 (HOPE-1),2009-072B,2026-05-15T06:14:46.973760,13.16437107,.00070845,100.4003,89.6214,313.5126,46.5398,0,U,36122,999,78867,-.79178015E-3,-.347E-5,0
COSMOS 2463,2010-017A,2026-05-14T15:00:22.691232,13.71663331,.00352961,82.9589,274.3664,221.5121,149.8612,0,U,36519,999,80333,.13697902E-4,.27E-6,0
CARTOSAT-2B,2010-035A,2026-05-15T05:58:02.032032,14.78618497,.00101413,97.9983,186.0044,301.4839,58.5380,0,U,36795,999,85498,.94176297E-4,.637E-5,0
TISAT 1,2010-035E,2026-05-15T07:23:14.209440,15.30389909,.00033217,98.0698,78.9793,48.8660,311.2865,0,U,36799,999,86267,.36576039E-3,.10669E-3,0
YAOGAN-10,2010-038A,2026-05-15T08:09:37.256256,14.85239792,.00014998,97.9002,159.0059,92.1934,324.3563,0,U,36834,999,85233,.60926939E-4,.469E-5,0
SHIJIAN-6 04B (SJ-6 04B),2010-051B,2026-05-15T07:41:19.072896,14.99258804,.00123844,97.8723,140.3971,58.0828,302.1598,0,U,37180,999,85075,-.17084553E-4,-.27E-5,0
FENGYUN 3B,2010-059A,2026-05-15T07:01:00.579648,14.14833023,.0020969,98.9650,181.1632,280.6353,213.2255,0,U,37214,999,80277,.79511271E-4,.108E-5,0
COSMO-SKYMED 4,2010-060A,2026-05-15T07:06:22.291776,14.82154460,.00014117,97.8886,319.3728,82.0968,278.0405,0,U,37216,999,83969,-.1026792E-4,-.134E-5,0
O/OREOS (USA 219),2010-062C,2026-05-15T04:16:52.011264,14.93597336,.00129365,71.9682,155.1006,135.2022,225.0196,0,U,37224,999,11171,.11064837E-3,.1106E-4,0
RESOURCESAT-2,2011-015A,2026-05-15T06:58:37.281792,14.21604638,.0011062,98.7653,202.9570,358.6027,1.5117,0,U,37387,999,78150,.40276318E-4,.44E-6,0
YOUTHSAT,2011-015B,2026-05-14T21:10:51.594240,14.25615483,.001576,98.3668,110.4428,80.4747,309.0805,0,U,37388,999,78289,.64597227E-4,.112E-5,0
APRIZESAT 6,2011-044F,2026-05-15T07:09:01.560672,14.76867550,.00428207,98.2384,45.1241,189.4231,285.9062,0,U,37793,999,79229,.54061923E-4,.329E-5,0
JUGNU,2011-058B,2026-05-15T06:31:34.962816,14.13766530,.00187866,19.9590,148.3955,73.1200,23.0347,0,U,37839,999,75436,.58910098E-4,.38E-5,0
SRMSAT,2011-058D,2026-05-14T16:58:10.147296,14.11567991,.00116434,19.9721,262.1224,195.4302,192.7658,0,U,37841,999,75308,.519347E-4,.361E-5,0
