CHUANGXIN 1-02 (CX-1-02)
1 33434U 08056B   26135.27510214 -.00000098  00000+0 -20848-4 0  9999
2 33434  98.6161 161.8670 0013183 234.2791 125.7165 14.30145439913917
STARS (KUKAI)           
1 33498U 09002G   26135.30285056  .00001734  00000+0  16224-3 0  9996
2 33498  98.1537  81.2799 0006964 282.0265  78.0174 14.95507662933566
KKS-1 (KISEKI)          
1 33499U 09002H   26135.26460233  .00000717  00000+0  94976-4 0  9995
2 33499  98.1195  57.1872 0008936  44.8029 315.3904 14.83032513931318
UK-DMC 2                
1 35683U 09041C   26135.34679341  .00000684  00000+0  10666-3 0  9992
2 35683  97.8781 271.1261 0001650  81.4593 278.6804 14.75973854901726
OCEANSAT-2              
1 35931U 09051A   26135.24449891  .00000124  00000+0  11052-3 0  9992
2 35931  98.2299 125.3874 0015041 334.6469  25.3958 13.99648902874729
SWISSCUBE               
1 35932U 09051B   26135.19069329  .00000568  00000+0  12199-3 0  9996
2 35932  98.4057  42.5027 0006036 326.5843  33.4976 14.62413285884337
BEESAT-1                
1 35933U 09051C   26135.18308193  .00000474  00000+0  10508-3 0  9999
2 35933  98.3986  42.1991 0004881 345.2860  14.8198 14.61662637884365
ITUPSAT1                
1 35935U 09051E   26135.28216561  .00000442  00000+0  10142-3 0  9998
2 35935  98.4071  41.5264 0007287 351.7541   8.3537 14.60387457883930
DMSP 5D-3 F18 (USA 210) 
1 35951U 09057A   26135.25794181  .00000205  00000+0  12937-3 0  9999
2 35951  98.9027 116.1021 0010896 351.1412   8.9567 14.14877335854930
PROBA-2                 
1 36037U 09059B   26135.09050740  .00000105  00000+0  34905-4 0  9994
2 36037  98.2449 318.9030 0013833  28.2746 331.9199 14.54847598876717
YAOGAN-7                
1 36110U 09069A   26135.25407791  .00000255  00000+0  42553-4 0  9991
2 36110  98.0112  21.3184 0025399 142.8060 217.4916 14.77974490884767
XIWANG-1 (HOPE-1)       
1 36122U 09072B   26135.26026590 -.00000347  00000+0 -79178-3 0  9999
2 36122 100.4003  89.6214 0007084 313.5126  46.5398 13.16437107788678
COSMOS 2463             
1 36519U 10017A   26134.62526263  .00000027  00000+0  13698-4 0  9990
2 36519  82.9589 274.3664 0035296 221.5121 149.8612 13.71663331803330
CARTOSAT-2B             
1 36795U 10035A   26135.24863463  .00000637  00000+0  94176-4 0  9998
2 36795  97.9983 186.0044 0010141 301.4839  58.5380 14.78618497854983
TISAT 1                 
1 36799U 10035E   26135.30780335  .00010669  00000+0  36576-3 0  9990
2 36799  98.0698  78.9793 0003321  48.8660 311.2865 15.30389909862672
YAOGAN-10               
1 36834U 10038A   26135.34001454  .00000469  00000+0  60927-4 0  9990
2 36834  97.9002 159.0059 0001499  92.1934 324.3563 14.85239792852330
SHIJIAN-6 04B (SJ-6 04B)
1 37180U 10051B   26135.32035964 -.00000270  00000+0 -17085-4 0  9990
2 37180  97.8723 140.3971 0012384  58.0828 302.1598 14.99258804850754
FENGYUN 3B              
1 37214U 10059A   26135.29236782  .00000108  00000+0  79511-4 0  9993
2 37214  98.9650 181.1632 0020969 280.6353 213.2255 14.14833023802774
COSMO-SKYMED 4          
1 37216U 10060A   26135.29609134 -.00000134  00000+0 -10268-4 0  9997
2 37216  97.8886 319.3728 0001411  82.0968 278.0405 14.82154460839696
O/OREOS (USA 219)       
1 37224U 10062C   26135.17837976  .00001106  00000+0  11065-3 0  9995
2 37224  71.9682 155.1006 0012936 135.2022 225.0196 14.93597336111713
RESOURCESAT-2           
1 37387U 11015A   26135.29070928  .00000044  00000+0  40276-4 0  9990
2 37387  98.7653 202.9570 0011062 358.6027   1.5117 14.21604638781505
YOUTHSAT                
1 37388U 11015B   26134.88254160  .00000112  00000+0  64597-4 0  9995
2 37388  98.3668 110.4428 0015760  80.4747 309.0805 14.25615483782898
APRIZESAT 6             
1 37793U 11044F   26135.29793473  .00000329  00000+0  54062-4 0  9994
2 37793  98.2384  45.1241 0042820 189.4231 285.9062 14.76867550792296
JUGNU                   
1 37839U 11058B   26135.27193244  .00000380  00000+0  58910-4 0  9991
2 37839  19.9590 148.3955 0018786  73.1200  23.0347 14.13766530754363
SRMSAT                  
1 37841U 11058D   26134.70706189  .00000361  00000+0  51935-4 0  9998
2 37841  19.9721 262.1224 0011643 195.4302 192.7658 14.11567991753087
